{
    "links": {
        "self": "http://www.neowsapp.com/rest/v1/neo/3942362?api_key=iIulBulltgU6a56xZRHN4H3l9WmuAYTsLGpBGhQ2"
    },
    "id": "3942362",
    "neo_reference_id": "3942362",
    "name": "(2019 YK)",
    "designation": "2019 YK",
    "nasa_jpl_url": "http://ssd.jpl.nasa.gov/sbdb.cgi?sstr=3942362",
    "absolute_magnitude_h": 24.0,
    "estimated_diameter": {
        "kilometers": {
            "estimated_diameter_min": 0.0421264611,
            "estimated_diameter_max": 0.0941976306
        },
        "meters": {
            "estimated_diameter_min": 42.1264610556,
            "estimated_diameter_max": 94.1976305719
        },
        "miles": {
            "estimated_diameter_min": 0.0261761612,
            "estimated_diameter_max": 0.0585316759
        },
        "feet": {
            "estimated_diameter_min": 138.2101784897,
            "estimated_diameter_max": 309.0473542854
        }
    },
    "is_potentially_hazardous_asteroid": false,
    "close_approach_data": [
        {
            "close_approach_date": "2016-11-25",
            "close_approach_date_full": "2016-Nov-25 13:56",
            "epoch_date_close_approach": 1480082160000,
            "relative_velocity": {
                "kilometers_per_second": "14.1292645517",
                "kilometers_per_hour": "50865.3523860793",
                "miles_per_hour": "31605.7518756725"
            },
            "miss_distance": {
                "astronomical": "0.2155066255",
                "lunar": "83.8320773195",
                "kilometers": "32239332.145687685",
                "miles": "20032592.071692653"
            },
            "orbiting_body": "Earth"
        },
        {
            "close_approach_date": "2020-01-01",
            "close_approach_date_full": "2020-Jan-01 02:06",
            "epoch_date_close_approach": 1577844360000,
            "relative_velocity": {
                "kilometers_per_second": "7.359263237",
                "kilometers_per_hour": "26493.3476530253",
                "miles_per_hour": "16461.9359347368"
            },
            "miss_distance": {
                "astronomical": "0.036100967",
                "lunar": "14.043276163",
                "kilometers": "5400627.76814029",
                "miles": "3355794.484864402"
            },
            "orbiting_body": "Earth"
        },
        {
            "close_approach_date": "2023-02-21",
            "close_approach_date_full": "2023-Feb-21 14:18",
            "epoch_date_close_approach": 1676989080000,
            "relative_velocity": {
                "kilometers_per_second": "14.0484331864",
                "kilometers_per_hour": "50574.3594710713",
                "miles_per_hour": "31424.9401946776"
            },
            "miss_distance": {
                "astronomical": "0.2423459286",
                "lunar": "94.2725662254",
                "kilometers": "36254434.721732082",
                "miles": "22527461.1238314516"
            },
            "orbiting_body": "Earth"
        },
        {
            "close_approach_date": "2087-02-27",
            "close_approach_date_full": "2087-Feb-27 06:11",
            "epoch_date_close_approach": 3697164660000,
            "relative_velocity": {
                "kilometers_per_second": "15.3628924117",
                "kilometers_per_hour": "55306.4126819555",
                "miles_per_hour": "34365.2540356295"
            },
            "miss_distance": {
                "astronomical": "0.2654938202",
                "lunar": "103.2770960578",
                "kilometers": "39717310.000082974",
                "miles": "24679192.0447100812"
            },
            "orbiting_body": "Earth"
        },
        {
            "close_approach_date": "2090-03-13",
            "close_approach_date_full": "2090-Mar-13 05:18",
            "epoch_date_close_approach": 3793065480000,
            "relative_velocity": {
                "kilometers_per_second": "22.3373184021",
                "kilometers_per_hour": "80414.3462476928",
                "miles_per_hour": "49966.34753374"
            },
            "miss_distance": {
                "astronomical": "0.4894321505",
                "lunar": "190.3891065445",
                "kilometers": "73218007.224319435",
                "miles": "45495560.032040803"
            },
            "orbiting_body": "Earth"
        }
    ],
    "orbital_data": {
        "orbit_id": "10",
        "orbit_determination_date": "2020-03-12 06:05:23",
        "first_observation_date": "2019-12-16",
        "last_observation_date": "2020-03-04",
        "data_arc_in_days": 79,
        "observations_used": 46,
        "orbit_uncertainty": "6",
        "minimum_orbit_intersection": ".0283457",
        "jupiter_tisserand_invariant": "3.550",
        "epoch_osculation": "2459000.5",
        "eccentricity": ".529938989073288",
        "semi_major_axis": "2.101187197343613",
        "inclination": "5.151445952838027",
        "ascending_node_longitude": "257.5562345047315",
        "orbital_period": "1112.488539736976",
        "perihelion_distance": ".9876861781296036",
        "perihelion_argument": "210.4027194081121",
        "aphelion_distance": "3.214688216557622",
        "perihelion_time": "2458856.700580086326",
        "mean_anomaly": "46.53332535107475",
        "mean_motion": ".3235988391261219",
        "equinox": "J2000",
        "orbit_class": {
            "orbit_class_type": "APO",
            "orbit_class_description": "Near-Earth asteroid orbits which cross the Earth’s orbit similar to that of 1862 Apollo",
            "orbit_class_range": "a (semi-major axis) > 1.0 AU; q (perihelion) < 1.017 AU"
        }
    },
    "is_sentry_object": false
}